GLOBALSTAR M094 [+]     
1 39074U 13005C   23335.62405130 -.00000096  00000+0  44132-4 0  9992
2 39074  51.9950  97.9978 0001054 115.7518 244.3457 12.62270103501202
GLOBALSTAR M096 [+]     
1 39075U 13005D   23335.63733586 -.00000113  00000+0 -53338-4 0  9992
2 39075  52.0046 146.0341 0001383  99.4067 260.6956 12.62266704500120
GLOBALSTAR M078 [+]     
1 39076U 13005E   23335.92752346 -.00000157  00000+0 -29882-3 0  9994
2 39076  51.9872 230.4270 0001562  38.9703 321.1276 12.62264533498783
GLOBALSTAR M095 [+]     
1 39077U 13005F   23335.00375112 -.00000054  00000+0  27593-3 0  9998
2 39077  51.9795 230.7175 0001579  59.6482 300.4540 12.62271371498521
GLOBALSTAR M087 [+]     
1 52888U 22064A   23335.71855533 -.00000091  00000+0  71131-4 0  9995
2 52888  51.9740 180.4239 0008755 216.3396 143.6911 13.37559609 70966
